[Satellite]
VERSION=1.1
NAME=MOZHAYETS
NICKNAME=MOZHAYETS
TLE1=1 27560U 02054B   11060.11220483  .00000048  00000-0  20885-4 0  1878
TLE2=2 27560  97.9229 240.9090 0043913  73.2128 287.3878 14.55178484437191
